[{"OBJECT_NAME":"STARLINK-6082","OBJECT_ID":"2023-046T","EPOCH":"2026-03-09T05:28:29.720064","MEAN_MOTION":15.02535742,"ECCENTRICITY":9.704e-5,"INCLINATION":43.0013,"RA_OF_ASC_NODE":161.3659,"ARG_OF_PERICENTER":289.0965,"MEAN_ANOMALY":70.9773,"EPHEMERIS_TYPE":0,"CLASSIFICATION_TYPE":"U","NORAD_CAT_ID":56110,"ELEMENT_SET_NO":999,"REV_AT_EPOCH":16199,"BSTAR":4.0748386e-5,"MEAN_MOTION_DOT":3.47e-6,"MEAN_MOTION_DDOT":0},{"OBJECT_NAME":"QAEM 100 R\/B","OBJECT_ID":"2024-165A","EPOCH":"2026-03-09T23:28:11.930304","MEAN_MOTION":15.14187295,"ECCENTRICITY":0.0059581,"INCLINATION":64.0756,"RA_OF_ASC_NODE":359.5576,"ARG_OF_PERICENTER":312.0209,"MEAN_ANOMALY":47.5844,"EPHEMERIS_TYPE":0,"CLASSIFICATION_TYPE":"U","NORAD_CAT_ID":61071,"ELEMENT_SET_NO":999,"REV_AT_EPOCH":8183,"BSTAR":0.0003372463,"MEAN_MOTION_DOT":6.252e-5,"MEAN_MOTION_DDOT":0}]
